{"type": "FeatureCollection", "features": [ {"type": "Feature", "properties": {"norad_id": 66455, "name": "ATLAS 5 CENTAUR R/B", "group": "last-30-days", "lat": -0.17215195919177584, "lon": -69.81683446626994, "alt_km": 23582.06340914684, "timestamp": "2025-12-11T10:53:14.619096+00:00", "meta": {"OBJECT_NAME": "ATLAS 5 CENTAUR R/B", "OBJECT_ID": "2025-261B", "EPOCH": "2025-12-10T19:10:51.172032", "MEAN_MOTION": 2.28259777, "ECCENTRICITY": 0.23294935, "INCLINATION": 6.1482, "RA_OF_ASC_NODE": 291.8106, "ARG_OF_PERICENTER": 186.0942, "MEAN_ANOMALY": 350.1221, "EPHEMERIS_TYPE": 0, "CLASSIFICATION_TYPE": "U", "NORAD_CAT_ID": 66455, "ELEMENT_SET_NO": 999, "REV_AT_EPOCH": 60, "BSTAR": 0, "MEAN_MOTION_DOT": -7.9e-07, "MEAN_MOTION_DDOT": 0}, "tle": {"line1": "1 66455U 25261B   25344.79920338 -.00000079  00000+0  00000+0 0  9996", "line2": "2 66455   6.1482 291.8106 2329493 186.0942 350.1221  2.28259777   607"}}, "geometry": {"type": "Point", "coordinates": [-69.81683446626994, -0.17215195919177584]}}, {"type": "Feature", "properties": {"norad_id": 66456, "name": "STARLINK-35643", "group": "last-30-days", "lat": -19.55023661832568, "lon": -78.57856144848884, "alt_km": 445.3680142641824, "timestamp": "2025-12-11T10:53:14.619108+00:00", "meta": {"OBJECT_NAME": "STARLINK-35643", "OBJECT_ID": "2025-262A", "EPOCH": "2025-12-11T04:00:01.998720", "MEAN_MOTION": 15.4058683, "ECCENTRICITY": 0.0001405, "INCLINATION": 42.9999, "RA_OF_ASC_NODE": 80.6749, "ARG_OF_PERICENTER": 249.9301, "MEAN_ANOMALY": 166.0034, "EPHEMERIS_TYPE": 0, "CLASSIFICATION_TYPE": "U", "NORAD_CAT_ID": 66456, "ELEMENT_SET_NO": 999, "REV_AT_EPOCH": 538, "BSTAR": 0.0032163, "MEAN_MOTION_DOT": 0.00135959, "MEAN_MOTION_DDOT": 0}, "tle": {"line1": "1 66456U 25262A   25345.16668980  .00135959  00000+0  32163-2 0  9995", "line2": "2 66456  42.9999  80.6749 0001405 249.9301 166.0034 15.40586830  5389"}}, "geometry": {"type": "Point", "coordinates": [-78.57856144848884, -19.55023661832568]}}, {"type": "Feature", "properties": {"norad_id": 66457, "name": "STARLINK-35466", "group": "last-30-days", "lat": -33.598319501808916, "lon": -55.56526311153882, "alt_km": 446.37392946444197, "timestamp": "2025-12-11T10:53:14.619119+00:00", "meta": {"OBJECT_NAME": "STARLINK-35466", "OBJECT_ID": "2025-262B", "EPOCH": "2025-12-11T04:00:01.998720", "MEAN_MOTION": 15.40594269, "ECCENTRICITY": 0.0001136, "INCLINATION": 43.0001, "RA_OF_ASC_NODE": 80.6141, "ARG_OF_PERICENTER": 259.0931, "MEAN_ANOMALY": 181.7179, "EPHEMERIS_TYPE": 0, "CLASSIFICATION_TYPE": "U", "NORAD_CAT_ID": 66457, "ELEMENT_SET_NO": 999, "REV_AT_EPOCH": 538, "BSTAR": 0.003178, "MEAN_MOTION_DOT": 0.00134337, "MEAN_MOTION_DDOT": 0}, "tle": {"line1": "1 66457U 25262B   25345.16668980  .00134337  00000+0  31780-2 0  9999", "line2": "2 66457  43.0001  80.6141 0001136 259.0931 181.7179 15.40594269  5383"}}, "geometry": {"type": "Point", "coordinates": [-55.56526311153882, -33.598319501808916]}}, {"type": "Feature", "properties": {"norad_id": 66458, "name": "STARLINK-35684", "group": "last-30-days", "lat": -27.022494778688355, "lon": -67.82673509467176, "alt_km": 446.1164043663339, "timestamp": "2025-12-11T10:53:14.619129+00:00", "meta": {"OBJECT_NAME": "STARLINK-35684", "OBJECT_ID": "2025-262C", "EPOCH": "2025-12-11T04:00:01.998720", "MEAN_MOTION": 15.40701439, "ECCENTRICITY": 0.0001316, "INCLINATION": 43.0001, "RA_OF_ASC_NODE": 80.6442, "ARG_OF_PERICENTER": 283.6188, "MEAN_ANOMALY": 144.6393, "EPHEMERIS_TYPE": 0, "CLASSIFICATION_TYPE": "U", "NORAD_CAT_ID": 66458, "ELEMENT_SET_NO": 999, "REV_AT_EPOCH": 538, "BSTAR": 0.00045568, "MEAN_MOTION_DOT": 0.00018779, "MEAN_MOTION_DDOT": 0}, "tle": {"line1": "1 66458U 25262C   25345.16668980  .00018779  00000+0  45568-3 0  9991", "line2": "2 66458  43.0001  80.6442 0001316 283.6188 144.6393 15.40701439  5380"}}, "geometry": {"type": "Point", "coordinates": [-67.82673509467176, -27.022494778688355]}}, {"type": "Feature", "properties": {"norad_id": 66459, "name": "STARLINK-35449", "group": "last-30-days", "lat": -38.76705443063964, "lon": -41.55058476731403, "alt_km": 446.2127528521087, "timestamp": "2025-12-11T10:53:14.619140+00:00", "meta": {"OBJECT_NAME": "STARLINK-35449", "OBJECT_ID": "2025-262D", "EPOCH": "2025-12-11T04:00:01.998720", "MEAN_MOTION": 15.40684927, "ECCENTRICITY": 0.0001591, "INCLINATION": 42.9999, "RA_OF_ASC_NODE": 80.5834, "ARG_OF_PERICENTER": 251.8241, "MEAN_ANOMALY": 201.3883, "EPHEMERIS_TYPE": 0, "CLASSIFICATION_TYPE": "U", "NORAD_CAT_ID": 66459, "ELEMENT_SET_NO": 999, "REV_AT_EPOCH": 538, "BSTAR": -0.00014122, "MEAN_MOTION_DOT": -6.195e-05, "MEAN_MOTION_DDOT": 0}, "tle": {"line1": "1 66459U 25262D   25345.16668980 -.00006195  00000+0 -14122-3 0  9995", "line2": "2 66459  42.9999  80.5834 0001591 251.8241 201.3883 15.40684927  5388"}}, "geometry": {"type": "Point", "coordinates": [-41.55058476731403, -38.76705443063964]}}, {"type": "Feature", "properties": {"norad_id": 66460, "name": "STARLINK-35424", "group": "last-30-days", "lat": -42.02093536731692, "lon": -25.87074163285125, "alt_km": 446.3778134385939, "timestamp": "2025-12-11T10:53:14.619153+00:00", "meta": {"OBJECT_NAME": "STARLINK-35424", "OBJECT_ID": "2025-262E", "EPOCH": "2025-12-11T04:00:01.998720", "MEAN_MOTION": 15.40628335, "ECCENTRICITY": 0.0001567, "INCLINATION": 43.0001, "RA_OF_ASC_NODE": 80.5531, "ARG_OF_PERICENTER": 258.8335, "MEAN_ANOMALY": 206.8057, "EPHEMERIS_TYPE": 0, "CLASSIFICATION_TYPE": "U", "NORAD_CAT_ID": 66460, "ELEMENT_SET_NO": 999, "REV_AT_EPOCH": 538, "BSTAR": 0.0021465, "MEAN_MOTION_DOT": 0.00090213, "MEAN_MOTION_DDOT": 0}, "tle": {"line1": "1 66460U 25262E   25345.16668980  .00090213  00000+0  21465-2 0  9996", "line2": "2 66460  43.0001  80.5531 0001567 258.8335 206.8057 15.40628335  5388"}}, "geometry": {"type": "Point", "coordinates": [-25.87074163285125, -42.02093536731692]}}, {"type": "Feature", "properties": {"norad_id": 66461, "name": "STARLINK-35132", "group": "last-30-days", "lat": -42.961226756056995, "lon": -9.064248274097377, "alt_km": 446.3434866379712, "timestamp": "2025-12-11T10:53:14.619166+00:00", "meta": {"OBJECT_NAME": "STARLINK-35132", "OBJECT_ID": "2025-262F", "EPOCH": "2025-12-11T04:00:01.998720", "MEAN_MOTION": 15.4061374, "ECCENTRICITY": 0.0001663, "INCLINATION": 43.0001, "RA_OF_ASC_NODE": 80.5224, "ARG_OF_PERICENTER": 265.0532, "MEAN_ANOMALY": 213.0393, "EPHEMERIS_TYPE": 0, "CLASSIFICATION_TYPE": "U", "NORAD_CAT_ID": 66461, "ELEMENT_SET_NO": 999, "REV_AT_EPOCH": 538, "BSTAR": 0.0029366, "MEAN_MOTION_DOT": 0.00124024, "MEAN_MOTION_DDOT": 0}, "tle": {"line1": "1 66461U 25262F   25345.16668980  .00124024  00000+0  29366-2 0  9993", "line2": "2 66461  43.0001  80.5224 0001663 265.0532 213.0393 15.40613740  5381"}}, "geometry": {"type": "Point", "coordinates": [-9.064248274097377, -42.961226756056995]}}, {"type": "Feature", "properties": {"norad_id": 66462, "name": "STARLINK-35499", "group": "last-30-days", "lat": -41.42752565850707, "lon": 7.576494786319282, "alt_km": 446.5975320455418, "timestamp": "2025-12-11T10:53:14.619176+00:00", "meta": {"OBJECT_NAME": "STARLINK-35499", "OBJECT_ID": "2025-262G", "EPOCH": "2025-12-11T04:00:01.998720", "MEAN_MOTION": 15.40616545, "ECCENTRICITY": 0.0001301, "INCLINATION": 43.0004, "RA_OF_ASC_NODE": 80.4918, "ARG_OF_PERICENTER": 258.1571, "MEAN_ANOMALY": 232.3742, "EPHEMERIS_TYPE": 0, "CLASSIFICATION_TYPE": "U", "NORAD_CAT_ID": 66462, "ELEMENT_SET_NO": 999, "REV_AT_EPOCH": 538, "BSTAR": 0.0028427, "MEAN_MOTION_DOT": 0.00119996, "MEAN_MOTION_DDOT": 0}, "tle": {"line1": "1 66462U 25262G   25345.16668980  .00119996  00000+0  28427-2 0  9993", "line2": "2 66462  43.0004  80.4918 0001301 258.1571 232.3742 15.40616545  5387"}}, "geometry": {"type": "Point", "coordinates": [7.576494786319282, -41.42752565850707]}}, {"type": "Feature", "properties": {"norad_id": 66463, "name": "STARLINK-35463", "group": "last-30-days", "lat": -32.069046924502985, "lon": 36.52805319147807, "alt_km": 446.6441959217682, "timestamp": "2025-12-11T10:53:14.619187+00:00", "meta": {"OBJECT_NAME": "STARLINK-35463", "OBJECT_ID": "2025-262H", "EPOCH": "2025-12-11T04:00:01.998720", "MEAN_MOTION": 15.40714909, "ECCENTRICITY": 0.0001732, "INCLINATION": 43.0007, "RA_OF_ASC_NODE": 80.4305, "ARG_OF_PERICENTER": 245.4003, "MEAN_ANOMALY": 270.0652, "EPHEMERIS_TYPE": 0, "CLASSIFICATION_TYPE": "U", "NORAD_CAT_ID": 66463, "ELEMENT_SET_NO": 999, "REV_AT_EPOCH": 538, "BSTAR": -0.0053732, "MEAN_MOTION_DOT": -0.00218567, "MEAN_MOTION_DDOT": 0}, "tle": {"line1": "1 66463U 25262H   25345.16668980 -.00218567  00000+0 -53732-2 0  9997", "line2": "2 66463  43.0007  80.4305 0001732 245.4003 270.0652 15.40714909  5380"}}, "geometry": {"type": "Point", "coordinates": [36.52805319147807, -32.069046924502985]}}, {"type": "Feature", "properties": {"norad_id": 66464, "name": "STARLINK-35435", "group": "last-30-days", "lat": -37.64183557686346, "lon": 22.94809040697997, "alt_km": 445.9747425350797, "timestamp": "2025-12-11T10:53:14.619198+00:00", "meta": {"OBJECT_NAME": "STARLINK-35435", "OBJECT_ID": "2025-262J", "EPOCH": "2025-12-11T04:00:01.998720", "MEAN_MOTION": 15.40706983, "ECCENTRICITY": 0.0001951, "INCLINATION": 43.0004, "RA_OF_ASC_NODE": 80.461, "ARG_OF_PERICENTER": 273.7801, "MEAN_ANOMALY": 229.1672, "EPHEMERIS_TYPE": 0, "CLASSIFICATION_TYPE": "U", "NORAD_CAT_ID": 66464, "ELEMENT_SET_NO": 999, "REV_AT_EPOCH": 538, "BSTAR": -0.00086183, "MEAN_MOTION_DOT": -0.00036144, "MEAN_MOTION_DDOT": 0}, "tle": {"line1": "1 66464U 25262J   25345.16668980 -.00036144  00000+0 -86183-3 0  9994", "line2": "2 66464  43.0004  80.4610 0001951 273.7801 229.1672 15.40706983  5380"}}, "geometry": {"type": "Point", "coordinates": [22.94809040697997, -37.64183557686346]}}]}